KUIPER-00112            
1 65150U 25171U   25356.79722544 -.00003269  00000+0 -39918-3 0  9998
2 65150  51.9012 135.6077 0008971 266.1506  93.8431 14.79956514 21537
KUIPER-00114            
1 65151U 25171V   25357.28211515  .00003209  00000+0  44957-3 0  9996
2 65151  51.8985 153.4777 0006142 202.3144 157.7552 14.79958650 21323
KUIPER-00115            
1 65152U 25171W   25357.15525971  .00003306  00000+0  46231-3 0  9992
2 65152  51.8993 146.5220 0009429 228.8949 131.1200 14.79940007 21419
KUIPER-00116            
1 65153U 25171X   25357.25116404 -.00002947  00000+0 -35717-3 0  9990
2 65153  51.8985 151.1403 0009777 194.4232 165.6452 14.79931528 21357
KUIPER-00118            
1 65154U 25171Y   25357.18099268  .00003146  00000+0  44164-3 0  9997
2 65154  51.8983 153.9065 0001307 169.3220 190.7770 14.79922677 21312
KUIPER-00119            
1 65155U 25171Z   25357.12689458  .00003909  00000+0  54141-3 0  9991
2 65155  51.8984 141.7283 0007993 223.6128 136.4203 14.79931658 21473
KUIPER-00120            
1 65762U 25217A   25357.24228593 -.00092577  00000+0 -12246-1 0  9997
2 65762  51.8992  29.8783 0004507  51.9104 308.2265 14.80047288 13434
KUIPER-00132            
1 65763U 25217B   25356.32234918  .00039043  00000+0  10434-2 0  9999
2 65763  51.8638  18.3881 0007534  49.5459 310.6184 15.37674339 13515
