<?xml version="1.0" encoding="UTF-8"?>
<ndm xmlns:xsi="http://www.w3.org/2001/XMLSchema-instance" xsi:noNamespaceSchemaLocation="https://sanaregistry.org/r/ndmxml_unqualified/ndmxml-2.0.0-master-2.0.xsd">
<omm id="CCSDS_OMM_VERS" version="2.0">
<header><CREATION_DATE/><ORIGINATOR/></header><body><segment><metadata><OBJECT_NAME>KUIPER-00112</OBJECT_NAME><OBJECT_ID>2025-171U</OBJECT_ID><CENTER_NAME>EARTH</CENTER_NAME><REF_FRAME>TEME</REF_FRAME><TIME_SYSTEM>UTC</TIME_SYSTEM><MEAN_ELEMENT_THEORY>SGP4</MEAN_ELEMENT_THEORY></metadata><data><meanElements><EPOCH>2025-12-22T19:08:00.278016</EPOCH><MEAN_MOTION>14.79956514</MEAN_MOTION><ECCENTRICITY>.00089717</ECCENTRICITY><INCLINATION>51.9012</INCLINATION><RA_OF_ASC_NODE>135.6077</RA_OF_ASC_NODE><ARG_OF_PERICENTER>266.1506</ARG_OF_PERICENTER><MEAN_ANOMALY>93.8431</MEAN_ANOMALY></meanElements><tleParameters><EPHEMERIS_TYPE>0</EPHEMERIS_TYPE><CLASSIFICATION_TYPE>U</CLASSIFICATION_TYPE><NORAD_CAT_ID>65150</NORAD_CAT_ID><ELEMENT_SET_NO>999</ELEMENT_SET_NO><REV_AT_EPOCH>2153</REV_AT_EPOCH><BSTAR>-.39917594E-3</BSTAR><MEAN_MOTION_DOT>-.3269E-4</MEAN_MOTION_DOT><MEAN_MOTION_DDOT>0</MEAN_MOTION_DDOT></tleParameters></data></segment></body></omm>
<omm id="CCSDS_OMM_VERS" version="2.0">
<header><CREATION_DATE/><ORIGINATOR/></header><body><segment><metadata><OBJECT_NAME>KUIPER-00114</OBJECT_NAME><OBJECT_ID>2025-171V</OBJECT_ID><CENTER_NAME>EARTH</CENTER_NAME><REF_FRAME>TEME</REF_FRAME><TIME_SYSTEM>UTC</TIME_SYSTEM><MEAN_ELEMENT_THEORY>SGP4</MEAN_ELEMENT_THEORY></metadata><data><meanElements><EPOCH>2025-12-23T06:46:14.748960</EPOCH><MEAN_MOTION>14.79958650</MEAN_MOTION><ECCENTRICITY>.00061423</ECCENTRICITY><INCLINATION>51.8985</INCLINATION><RA_OF_ASC_NODE>153.4777</RA_OF_ASC_NODE><ARG_OF_PERICENTER>202.3144</ARG_OF_PERICENTER><MEAN_ANOMALY>157.7552</MEAN_ANOMALY></meanElements><tleParameters><EPHEMERIS_TYPE>0</EPHEMERIS_TYPE><CLASSIFICATION_TYPE>U</CLASSIFICATION_TYPE><NORAD_CAT_ID>65151</NORAD_CAT_ID><ELEMENT_SET_NO>999</ELEMENT_SET_NO><REV_AT_EPOCH>2132</REV_AT_EPOCH><BSTAR>.4495685E-3</BSTAR><MEAN_MOTION_DOT>.3209E-4</MEAN_MOTION_DOT><MEAN_MOTION_DDOT>0</MEAN_MOTION_DDOT></tleParameters></data></segment></body></omm>
<omm id="CCSDS_OMM_VERS" version="2.0">
<header><CREATION_DATE/><ORIGINATOR/></header><body><segment><metadata><OBJECT_NAME>KUIPER-00115</OBJECT_NAME><OBJECT_ID>2025-171W</OBJECT_ID><CENTER_NAME>EARTH</CENTER_NAME><REF_FRAME>TEME</REF_FRAME><TIME_SYSTEM>UTC</TIME_SYSTEM><MEAN_ELEMENT_THEORY>SGP4</MEAN_ELEMENT_THEORY></metadata><data><meanElements><EPOCH>2025-12-23T03:43:34.438944</EPOCH><MEAN_MOTION>14.79940007</MEAN_MOTION><ECCENTRICITY>.00094293</ECCENTRICITY><INCLINATION>51.8993</INCLINATION><RA_OF_ASC_NODE>146.5220</RA_OF_ASC_NODE><ARG_OF_PERICENTER>228.8949</ARG_OF_PERICENTER><MEAN_ANOMALY>131.1200</MEAN_ANOMALY></meanElements><tleParameters><EPHEMERIS_TYPE>0</EPHEMERIS_TYPE><CLASSIFICATION_TYPE>U</CLASSIFICATION_TYPE><NORAD_CAT_ID>65152</NORAD_CAT_ID><ELEMENT_SET_NO>999</ELEMENT_SET_NO><REV_AT_EPOCH>2141</REV_AT_EPOCH><BSTAR>.46231491E-3</BSTAR><MEAN_MOTION_DOT>.3306E-4</MEAN_MOTION_DOT><MEAN_MOTION_DDOT>0</MEAN_MOTION_DDOT></tleParameters></data></segment></body></omm>
<omm id="CCSDS_OMM_VERS" version="2.0">
<header><CREATION_DATE/><ORIGINATOR/></header><body><segment><metadata><OBJECT_NAME>KUIPER-00116</OBJECT_NAME><OBJECT_ID>2025-171X</OBJECT_ID><CENTER_NAME>EARTH</CENTER_NAME><REF_FRAME>TEME</REF_FRAME><TIME_SYSTEM>UTC</TIME_SYSTEM><MEAN_ELEMENT_THEORY>SGP4</MEAN_ELEMENT_THEORY></metadata><data><meanElements><EPOCH>2025-12-23T06:01:40.573056</EPOCH><MEAN_MOTION>14.79931528</MEAN_MOTION><ECCENTRICITY>.00097773</ECCENTRICITY><INCLINATION>51.8985</INCLINATION><RA_OF_ASC_NODE>151.1403</RA_OF_ASC_NODE><ARG_OF_PERICENTER>194.4232</ARG_OF_PERICENTER><MEAN_ANOMALY>165.6452</MEAN_ANOMALY></meanElements><tleParameters><EPHEMERIS_TYPE>0</EPHEMERIS_TYPE><CLASSIFICATION_TYPE>U</CLASSIFICATION_TYPE><NORAD_CAT_ID>65153</NORAD_CAT_ID><ELEMENT_SET_NO>999</ELEMENT_SET_NO><REV_AT_EPOCH>2135</REV_AT_EPOCH><BSTAR>-.35716814E-3</BSTAR><MEAN_MOTION_DOT>-.2947E-4</MEAN_MOTION_DOT><MEAN_MOTION_DDOT>0</MEAN_MOTION_DDOT></tleParameters></data></segment></body></omm>
<omm id="CCSDS_OMM_VERS" version="2.0">
<header><CREATION_DATE/><ORIGINATOR/></header><body><segment><metadata><OBJECT_NAME>KUIPER-00118</OBJECT_NAME><OBJECT_ID>2025-171Y</OBJECT_ID><CENTER_NAME>EARTH</CENTER_NAME><REF_FRAME>TEME</REF_FRAME><TIME_SYSTEM>UTC</TIME_SYSTEM><MEAN_ELEMENT_THEORY>SGP4</MEAN_ELEMENT_THEORY></metadata><data><meanElements><EPOCH>2025-12-23T04:20:37.767552</EPOCH><MEAN_MOTION>14.79922677</MEAN_MOTION><ECCENTRICITY>.00013073</ECCENTRICITY><INCLINATION>51.8983</INCLINATION><RA_OF_ASC_NODE>153.9065</RA_OF_ASC_NODE><ARG_OF_PERICENTER>169.3220</ARG_OF_PERICENTER><MEAN_ANOMALY>190.7770</MEAN_ANOMALY></meanElements><tleParameters><EPHEMERIS_TYPE>0</EPHEMERIS_TYPE><CLASSIFICATION_TYPE>U</CLASSIFICATION_TYPE><NORAD_CAT_ID>65154</NORAD_CAT_ID><ELEMENT_SET_NO>999</ELEMENT_SET_NO><REV_AT_EPOCH>2131</REV_AT_EPOCH><BSTAR>.44164169E-3</BSTAR><MEAN_MOTION_DOT>.3146E-4</MEAN_MOTION_DOT><MEAN_MOTION_DDOT>0</MEAN_MOTION_DDOT></tleParameters></data></segment></body></omm>
<omm id="CCSDS_OMM_VERS" version="2.0">
<header><CREATION_DATE/><ORIGINATOR/></header><body><segment><metadata><OBJECT_NAME>KUIPER-00119</OBJECT_NAME><OBJECT_ID>2025-171Z</OBJECT_ID><CENTER_NAME>EARTH</CENTER_NAME><REF_FRAME>TEME</REF_FRAME><TIME_SYSTEM>UTC</TIME_SYSTEM><MEAN_ELEMENT_THEORY>SGP4</MEAN_ELEMENT_THEORY></metadata><data><meanElements><EPOCH>2025-12-23T03:02:43.691712</EPOCH><MEAN_MOTION>14.79931658</MEAN_MOTION><ECCENTRICITY>.00079932</ECCENTRICITY><INCLINATION>51.8984</INCLINATION><RA_OF_ASC_NODE>141.7283</RA_OF_ASC_NODE><ARG_OF_PERICENTER>223.6128</ARG_OF_PERICENTER><MEAN_ANOMALY>136.4203</MEAN_ANOMALY></meanElements><tleParameters><EPHEMERIS_TYPE>0</EPHEMERIS_TYPE><CLASSIFICATION_TYPE>U</CLASSIFICATION_TYPE><NORAD_CAT_ID>65155</NORAD_CAT_ID><ELEMENT_SET_NO>999</ELEMENT_SET_NO><REV_AT_EPOCH>2147</REV_AT_EPOCH><BSTAR>.54141162E-3</BSTAR><MEAN_MOTION_DOT>.3909E-4</MEAN_MOTION_DOT><MEAN_MOTION_DDOT>0</MEAN_MOTION_DDOT></tleParameters></data></segment></body></omm>
<omm id="CCSDS_OMM_VERS" version="2.0">
<header><CREATION_DATE/><ORIGINATOR/></header><body><segment><metadata><OBJECT_NAME>KUIPER-00120</OBJECT_NAME><OBJECT_ID>2025-217A</OBJECT_ID><CENTER_NAME>EARTH</CENTER_NAME><REF_FRAME>TEME</REF_FRAME><TIME_SYSTEM>UTC</TIME_SYSTEM><MEAN_ELEMENT_THEORY>SGP4</MEAN_ELEMENT_THEORY></metadata><data><meanElements><EPOCH>2025-12-23T05:48:53.504352</EPOCH><MEAN_MOTION>14.80047288</MEAN_MOTION><ECCENTRICITY>.00045073</ECCENTRICITY><INCLINATION>51.8992</INCLINATION><RA_OF_ASC_NODE>29.8783</RA_OF_ASC_NODE><ARG_OF_PERICENTER>51.9104</ARG_OF_PERICENTER><MEAN_ANOMALY>308.2265</MEAN_ANOMALY></meanElements><tleParameters><EPHEMERIS_TYPE>0</EPHEMERIS_TYPE><CLASSIFICATION_TYPE>U</CLASSIFICATION_TYPE><NORAD_CAT_ID>65762</NORAD_CAT_ID><ELEMENT_SET_NO>999</ELEMENT_SET_NO><REV_AT_EPOCH>1343</REV_AT_EPOCH><BSTAR>-.12246009E-1</BSTAR><MEAN_MOTION_DOT>-.92577E-3</MEAN_MOTION_DOT><MEAN_MOTION_DDOT>0</MEAN_MOTION_DDOT></tleParameters></data></segment></body></omm>
<omm id="CCSDS_OMM_VERS" version="2.0">
<header><CREATION_DATE/><ORIGINATOR/></header><body><segment><metadata><OBJECT_NAME>KUIPER-00132</OBJECT_NAME><OBJECT_ID>2025-217B</OBJECT_ID><CENTER_NAME>EARTH</CENTER_NAME><REF_FRAME>TEME</REF_FRAME><TIME_SYSTEM>UTC</TIME_SYSTEM><MEAN_ELEMENT_THEORY>SGP4</MEAN_ELEMENT_THEORY></metadata><data><meanElements><EPOCH>2025-12-22T07:44:10.969152</EPOCH><MEAN_MOTION>15.37674339</MEAN_MOTION><ECCENTRICITY>.00075348</ECCENTRICITY><INCLINATION>51.8638</INCLINATION><RA_OF_ASC_NODE>18.3881</RA_OF_ASC_NODE><ARG_OF_PERICENTER>49.5459</ARG_OF_PERICENTER><MEAN_ANOMALY>310.6184</MEAN_ANOMALY></meanElements><tleParameters><EPHEMERIS_TYPE>0</EPHEMERIS_TYPE><CLASSIFICATION_TYPE>U</CLASSIFICATION_TYPE><NORAD_CAT_ID>65763</NORAD_CAT_ID><ELEMENT_SET_NO>999</ELEMENT_SET_NO><REV_AT_EPOCH>1351</REV_AT_EPOCH><BSTAR>.10434216E-2</BSTAR><MEAN_MOTION_DOT>.39043E-3</MEAN_MOTION_DOT><MEAN_MOTION_DDOT>0</MEAN_MOTION_DDOT></tleParameters></data></segment></body></omm>

</ndm>
